DMSP 5D-3 F16 (USA 172) 
1 28054U 03048A   26166.18114176  .00000014  00000+0  30690-4 0  9990
2 28054  98.9891 189.9962 0007669 145.4577 261.2180 14.14483047169204
METEOSAT-9 (MSG-2)      
1 28912U 05049B   26165.95824632  .00000122  00000+0  00000+0 0  9992
2 28912   9.3563  54.1897 0001586 342.1562 257.5139  1.00271050  6977
DMSP 5D-3 F17 (USA 191) 
1 29522U 06050A   26166.18977976  .00000035  00000+0  40414-4 0  9990
2 29522  98.7378 172.8007 0011216  64.6197 295.6137 14.14992901 12144
FENGYUN 3A              
1 32958U 08026A   26166.07378955  .00000053  00000+0  45417-4 0  9990
2 32958  98.6883 106.9464 0009516 129.1406 231.0617 14.19570713935101
GOES 14                 
1 35491U 09033A   26165.98725531 -.00000279  00000+0  00000+0 0  9994
2 35491   1.6845  83.0681 0001701  10.7021 308.0193  1.00111456  6564
DMSP 5D-3 F18 (USA 210) 
1 35951U 09057A   26166.16102635  .00000195  00000+0  12397-3 0  9998
2 35951  98.9037 146.9345 0009867 255.9666 104.0410 14.14895651859301
EWS-G2 (GOES 15)        
1 36411U 10008A   26166.20302918  .00000021  00000+0  00000+0 0  9991
2 36411   1.2724  82.8866 0005365  42.1201 275.2720  1.00275679 59613
COMS 1                  
1 36744U 10032A   26165.90754436  .00000023  00000+0  00000+0 0  9991
2 36744   4.7990  75.3807 0011440  11.6720 225.4123  0.99162575 51067
FENGYUN 3B              
1 37214U 10059A   26166.18757859  .00000131  00000+0  90899-4 0  9996
2 37214  98.9624 212.1934 0021814 189.8033 258.6137 14.14841923807146
SUOMI NPP               
1 37849U 11061A   26166.15547520  .00000056  00000+0  47472-4 0  9998
2 37849  98.7954 107.0454 0001647  11.9327 348.1888 14.19516958758152
METEOSAT-10 (MSG-3)     
1 38552U 12035B   26166.04516218 -.00000003  00000+0  00000+0 0  9994
2 38552   4.6666  61.0299 0001439 327.8693 251.0167  1.00276414 50838
METOP-B                 
1 38771U 12049A   26166.14827639  .00000090  00000+0  60794-4 0  9991
2 38771  98.6505 217.6881 0002356  24.6800 335.4490 14.21432171712970
INSAT-3D                
1 39216U 13038B   26166.00392058 -.00000335  00000+0  00000+0 0  9994
2 39216   1.9205  82.5665 0000543 307.5139   4.1464  1.00270111 47050
FENGYUN 3C              
1 39260U 13052A   26166.20630355  .00000037  00000+0  39738-4 0  9999
2 39260  98.4986 140.1720 0015347  33.1084 327.1048 14.15754560658282
METEOR-M 2              
1 40069U 14037A   26166.17468137  .00000125  00000+0  76175-4 0  9999
2 40069  98.5106 141.9841 0006842  49.3937 310.7835 14.21461531619037
HIMAWARI-8              
1 40267U 14060A   26165.93041942 -.00000270  00000+0  00000+0 0  9990
2 40267   0.0127 333.1216 0000964 113.5884 292.1256  1.00272313 42731
FENGYUN 2G              
1 40367U 14090A   26165.77976201 -.00000301  00000+0  00000+0 0  9996
2 40367   5.6329  72.8457 0003942 155.9654  54.6513  1.00273198 41979
METEOSAT-11 (MSG-4)     
1 40732U 15034A   26166.18964824  .00000067  00000+0  00000+0 0  9993
2 40732   3.1965  71.1221 0001759  10.4284 259.8083  1.00279741  7190
ELEKTRO-L 2             
1 41105U 15074A   26165.97095832 -.00000118  00000+0  00000+0 0  9990
2 41105   6.6873  70.5494 0000874 244.3322 283.4193  1.00270489 38485
SENTINEL-3A             
1 41335U 16011A   26166.18279166  .00000093  00000+0  56369-4 0  9990
2 41335  98.6249 233.5951 0001390 102.3355 257.7981 14.26739446537770
HIMAWARI-9              
1 41836U 16064A   26165.93041942 -.00000270  00000+0  00000+0 0  9999
2 41836   0.0508 146.5149 0000809 354.1602 238.2669  1.00269766 35185
GOES 16                 
1 41866U 16071A   26166.17128211 -.00000087  00000+0  00000+0 0  9998
2 41866   0.3361  85.5214 0000206 301.2128 193.6968  1.00270910 35088
FENGYUN 4A              
1 41882U 16077A   26165.99838347 -.00000354  00000+0  00000+0 0  9996
2 41882   2.3160  80.3067 0008715 153.1278 153.0482  1.00269655 34902
CYGFM05                 
1 41884U 16078A   26165.67827459  .00021186  00000+0  28816-3 0  9990
2 41884  34.9575 277.2022 0006760 125.1735 234.9624 15.56575412528360
CYGFM04                 
1 41885U 16078B   26165.59272530  .00027283  00000+0  30860-3 0  9992
2 41885  34.9324 245.5899 0006328 171.1834 188.9003 15.61388565528595
CYGFM02                 
1 41886U 16078C   26165.59836275  .00032073  00000+0  32246-3 0  9998
2 41886  34.9402 240.1637 0007349 172.2814 187.8027 15.64358647528762
CYGFM01                 
1 41887U 16078D   26165.98861429  .00022894  00000+0  30335-3 0  9998
2 41887  34.9403 276.2228 0006583 122.4627 237.6734 15.57263232528360
CYGFM08                 
1 41888U 16078E   26165.95185981  .00026253  00000+0  31413-3 0  9999
2 41888  34.9431 256.1039 0008096 155.9928 204.1175 15.59919693528623
CYGFM07                 
1 41890U 16078G   26165.65516751  .00025184  00000+0  30057-3 0  9997
2 41890  34.9444 246.4236 0006750 170.4422 189.6433 15.60005273528601
CYGFM03                 
1 41891U 16078H   26165.62616195  .00025393  00000+0  30321-3 0  9994
2 41891  34.9400 248.5547 0006142 157.6491 202.4503 15.59996653528577
